[{"OBJECT_NAME":"NUSAT-50 (NANCY ROMAN)","OBJECT_ID":"2024-149AB","EPOCH":"2026-03-09T19:15:16.765632","MEAN_MOTION":15.29713355,"ECCENTRICITY":0.00025229,"INCLINATION":97.3817,"RA_OF_ASC_NODE":150.7693,"ARG_OF_PERICENTER":238.0469,"MEAN_ANOMALY":122.0527,"EPHEMERIS_TYPE":0,"CLASSIFICATION_TYPE":"U","NORAD_CAT_ID":60493,"ELEMENT_SET_NO":999,"REV_AT_EPOCH":8693,"BSTAR":0.0004225155,"MEAN_MOTION_DOT":0.00012094,"MEAN_MOTION_DDOT":0},{"OBJECT_NAME":"STARLINK-34273","OBJECT_ID":"2025-157B","EPOCH":"2026-03-09T04:19:19.035552","MEAN_MOTION":15.30181902,"ECCENTRICITY":0.00011822,"INCLINATION":53.1608,"RA_OF_ASC_NODE":348.1885,"ARG_OF_PERICENTER":58.1528,"MEAN_ANOMALY":301.9587,"EPHEMERIS_TYPE":0,"CLASSIFICATION_TYPE":"U","NORAD_CAT_ID":64905,"ELEMENT_SET_NO":999,"REV_AT_EPOCH":3605,"BSTAR":0.0013347067,"MEAN_MOTION_DOT":0.00039358,"MEAN_MOTION_DDOT":0}]
